ORBCOMM-X               
1 21576U 91050C   24196.75302697  .00000668  00000+0  21411-3 0  9998
2 21576  98.3883 263.5328 0004767 119.2448 240.9219 14.42589213733452
ORBCOMM FM01            
1 23545U 95017A   24196.70053415  .00010645  00000+0  13802-2 0  9999
2 23545  69.9658 190.3254 0003357 150.8046 209.3292 14.80993443562375
ORBCOMM FM02            
1 23546U 95017B   24196.74547925  .00009550  00000+0  12490-2 0  9993
2 23546  69.9673 209.7437 0004635 127.5596 232.5975 14.80665993562026
ORBCOMM FM08            
1 25112U 97084A   24196.69388269  .00002971  00000+0  92232-3 0  9991
2 25112  45.0126 184.7393 0009048 336.3955  23.6479 14.42916414392574
ORBCOMM FM10            
1 25113U 97084B   24196.70536963  .00002249  00000+0  71012-3 0  9991
2 25113  45.0147 186.5973 0007133 312.7400  47.2850 14.42813589567723
ORBCOMM FM11            
1 25114U 97084C   24196.66059636  .00002490  00000+0  78382-3 0  9999
2 25114  45.0124 186.9358 0007929 312.3976  47.6202 14.42680076392686
ORBCOMM FM12            
1 25115U 97084D   24196.69130729  .00002514  00000+0  79158-3 0  9995
2 25115  45.0132 186.5075 0006943 312.4108  47.6154 14.42641543392481
ORBCOMM FM09            
1 25116U 97084E   24196.70426140  .00002229  00000+0  70722-3 0  9994
2 25116  45.0143 187.1522 0007966 301.8888  58.1186 14.42606479392695
